      2.10          N: GNSS NAV DATA                        RINEX VERSION / TYPE
fic2rin                                 10/17/2022 00:17:58 PGM / RUN BY / DATE
                                                            END OF HEADER
28 22 10 16 12  0  0.0  .328291673213D-03 -.488853402203D-11  .000000000000D+00
     .350000000000D+02  .634375000000D+02  .431946563737D-08 -.240449782739D+00
     .328011810780D-05  .163875609869D-01  .760518014431D-05  .515365579224D+04
     .432000000000D+05 -.292435288429D-06 -.202433464139D+01 -.113621354103D-06
     .966566821936D+00  .240406250000D+03 -.125198581551D+01 -.809819446516D-08
    -.732173355102D-10  .100000000000D+01  .223200000000D+04  .000000000000D+00
     .240000000000D+01  .630000000000D+02 -.111758708954D-07  .350000000000D+02
     .360000000000D+05  .400000000000D+01
3  22 10 16 11 59 44.0 -.365003477782D-03 -.397903932026D-11  .000000000000D+00
     .180000000000D+02 -.597187500000D+02  .410374236591D-08  .226970963335D+01
    -.323168933392D-05  .446974381339D-02  .743381679058D-05  .515379571533D+04
     .431840000000D+05 -.353902578354D-07  .102485150289D+01 -.763684511185D-07
     .975573557972D+00  .242343750000D+03  .104971313880D+01 -.772460747519D-08
     .155006456641D-09  .100000000000D+01  .223200000000D+04  .000000000000D+00
     .240000000000D+01  .000000000000D+00  .186264514923D-08  .180000000000D+02
     .375300000000D+05  .400000000000D+01
2  22 10 16 11 59 44.0 -.642119906843D-03  .159161572810D-11  .000000000000D+00
     .900000000000D+01 -.405937500000D+02  .435160983345D-08  .267998046486D+01
    -.212714076042D-05  .200589468004D-01  .338442623615D-05  .515489929199D+04
     .431840000000D+05  .271946191788D-06 -.101595498603D+00 -.372529029846D-07
     .966927611182D+00  .316093750000D+03 -.139078403185D+01 -.782425448303D-08
    -.657170230921D-10  .100000000000D+01  .223200000000D+04  .000000000000D+00
     .240000000000D+01  .000000000000D+00 -.172294676304D-07  .900000000000D+01
     .375300000000D+05  .400000000000D+01
14 22 10 16 12 44 32.0 -.944528728724D-04  .397903932026D-11  .000000000000D+00
     .161000000000D+03  .635000000000D+02  .456126142342D-08  .236421424660D+01
     .332109630108D-05  .234936794732D-02  .755488872528D-05  .515366022873D+04
     .458720000000D+05 -.149011611938D-07 -.208135538746D+01  .111758708954D-07
     .950959029409D+00  .227812500000D+03 -.303700358133D+01 -.799676166865D-08
    -.170721396946D-09  .100000000000D+01  .223200000000D+04  .000000000000D+00
     .240000000000D+01  .000000000000D+00 -.791624188423D-08  .417000000000D+03
     .387000000000D+05  .400000000000D+01
3  22 10 16 13 59 44.0 -.365031883121D-03 -.397903932026D-11  .000000000000D+00
     .190000000000D+02 -.639687500000D+02  .417553107049D-08 -.296341685773D+01
    -.333413481712D-05  .447031331714D-02  .718422234058D-05  .515379483986D+04
     .503840000000D+05  .651925802231D-07  .102479541754D+01 -.115483999252D-06
     .975574637605D+00  .247437500000D+03  .104975782363D+01 -.777782397759D-08
     .212508851847D-09  .100000000000D+01  .223200000000D+04  .000000000000D+00
     .240000000000D+01  .000000000000D+00  .186264514923D-08  .190000000000D+02
     .432000000000D+05  .400000000000D+01
2  22 10 16 13 59 44.0 -.642108730972D-03  .159161572810D-11  .000000000000D+00
     .100000000000D+02 -.425312500000D+02  .422053294500D-08 -.255377353615D+01
    -.198930501938D-05  .200584048871D-01  .329501926899D-05  .515490024567D+04
     .503840000000D+05  .143423676491D-06 -.101652725033D+00  .186264514923D-06
     .966928028114D+00  .312125000000D+03 -.139078460824D+01 -.778103839720D-08
     .125719522437D-09  .100000000000D+01  .223200000000D+04  .000000000000D+00
     .240000000000D+01  .000000000000D+00 -.172294676304D-07  .100000000000D+02
     .432000000000D+05  .400000000000D+01
1  22 10 16 14  0  0.0  .266626942903D-03 -.602540239925D-11  .000000000000D+00
     .300000000000D+02 -.340000000000D+02  .384944605917D-08 -.187109502735D+01
    -.184215605259D-05  .120073886355D-01  .436417758465D-05  .515365891266D+04
     .504000000000D+05  .212341547012D-06 -.746095535017D-02 -.987201929092D-07
     .989053817033D+00  .306093750000D+03  .942621729076D+00 -.770353516888D-08
     .156435087578D-09  .100000000000D+01  .223200000000D+04  .000000000000D+00
     .240000000000D+01  .000000000000D+00  .512227416039D-08  .300000000000D+02
     .432000000000D+05  .400000000000D+01
12 22 10 16 14  0  0.0 -.292931683362D-03 -.443378667114D-11  .000000000000D+00
     .200000000000D+02  .702187500000D+02  .411267130927D-08  .306415120814D+01
     .370107591152D-05  .854447064921D-02  .776536762714D-05  .515372767448D+04
     .504000000000D+05  .838190317154D-07 -.204622740501D+01 -.577419996262D-07
     .967562197249D+00  .230937500000D+03  .131851734897D+01 -.763460372618D-08
    -.190722230061D-09  .100000000000D+01  .223200000000D+04  .000000000000D+00
     .240000000000D+01  .000000000000D+00 -.125728547573D-07  .200000000000D+02
     .432000000000D+05  .400000000000D+01
6  22 10 16 14  0  0.0  .492813531309D-03  .108002495836D-10  .000000000000D+00
     .190000000000D+02 -.417187500000D+02  .395802201036D-08 -.162299178241D+01
    -.210665166378D-05  .251754105557D-02  .482238829136D-05  .515353912354D+04
     .504000000000D+05 -.633299350739D-07 -.157358329692D-01 -.353902578354D-07
     .988345924141D+00  .303750000000D+03 -.910672563750D+00 -.787139930395D-08
     .700029159024D-10  .100000000000D+01  .223200000000D+04  .000000000000D+00
     .240000000000D+01  .000000000000D+00  .372529029846D-08  .190000000000D+02
     .432000000000D+05  .400000000000D+01
5  22 10 16 14  0  0.0 -.100614037365D-03 -.147792889038D-11  .000000000000D+00
     .470000000000D+02 -.714062500000D+02  .451125934063D-08  .637370575374D+00
    -.356696546078D-05  .598740461282D-02  .781752169132D-05  .515355219650D+04
     .504000000000D+05 -.502914190292D-07  .981177359301D+00  .279396772385D-07
     .962622979122D+00  .230625000000D+03  .113432296622D+01 -.808105089392D-08
     .143220251413D-09  .100000000000D+01  .223200000000D+04  .000000000000D+00
     .240000000000D+01  .000000000000D+00 -.111758708954D-07  .470000000000D+02
     .432000000000D+05  .400000000000D+01
31 22 10 16 14  0  0.0 -.196987297386D-03 -.136424205266D-11  .000000000000D+00
     .560000000000D+02  .106250000000D+02  .472305387701D-08 -.303435984698D+01
     .437721610069D-06  .106197765563D-01  .794976949692D-05  .515359612656D+04
     .504000000000D+05 -.819563865662D-07 -.314096894871D+01 -.119209289551D-06
     .955147630121D+00  .223718750000D+03  .443924565571D+00 -.783818363467D-08
    -.225723688012D-09  .100000000000D+01  .223200000000D+04  .000000000000D+00
     .240000000000D+01  .000000000000D+00 -.135041773319D-07  .560000000000D+02
     .432000000000D+05  .400000000000D+01
16 22 10 16 14  0  0.0 -.526280142367D-03 -.454747350886D-12  .000000000000D+00
     .420000000000D+02  .627187500000D+02  .420910389750D-08  .128333720033D+01
     .342540442944D-05  .128634526627D-01  .848434865475D-05  .515373096085D+04
     .504000000000D+05 -.186264514923D-06 -.202777796580D+01  .558793544769D-07
     .967367450669D+00  .223156250000D+03  .735374364323D+00 -.797997525514D-08
    -.361443627006D-09  .100000000000D+01  .223200000000D+04  .000000000000D+00
     .240000000000D+01  .000000000000D+00 -.102445483208D-07  .420000000000D+02
     .432000000000D+05  .400000000000D+01
8  22 10 16 14  0  0.0 -.891266390681D-04 -.170530256582D-11  .000000000000D+00
     .660000000000D+02  .480312500000D+02  .444304221340D-08  .387858502286D+00
     .256672501564D-05  .761739327572D-02  .482797622681D-05  .515360559845D+04
     .504000000000D+05  .126659870148D-06 -.109281745825D+01  .670552253723D-07
     .961591923238D+00  .284562500000D+03  .163072851976D+00 -.822177104119D-08
     .714315468392D-12  .100000000000D+01  .223200000000D+04  .000000000000D+00
     .240000000000D+01  .000000000000D+00  .512227416039D-08  .660000000000D+02
     .432000000000D+05  .400000000000D+01
4  22 10 16 14  0  0.0 -.102628953755D-03  .613908923697D-11  .000000000000D+00
     .131000000000D+03 -.248125000000D+02  .459626288137D-08  .421397678162D-01
    -.144168734550D-05  .207620393485D-02  .760890543461D-05  .515374361229D+04
     .504000000000D+05  .372529029846D-08  .210656797741D+01 -.167638063431D-07
     .961702636878D+00  .232218750000D+03 -.311449015342D+01 -.794640242813D-08
     .817891211309D-10  .100000000000D+01  .223200000000D+04  .000000000000D+00
     .240000000000D+01  .000000000000D+00 -.465661287308D-08  .899000000000D+03
     .432000000000D+05  .400000000000D+01
9  22 10 16 14  0  0.0 -.282396562397D-03  .522959453519D-11  .000000000000D+00
     .650000000000D+02 -.244375000000D+02  .475876965043D-08  .784460724029D+00
    -.137835741043D-05  .258857081644D-02  .781938433647D-05  .515374029160D+04
     .504000000000D+05 -.614672899246D-07  .205165136105D+01 -.502914190292D-07
     .954807033534D+00  .225031250000D+03  .191118244691D+01 -.804426364730D-08
     .142505935944D-09  .100000000000D+01  .223200000000D+04  .000000000000D+00
     .240000000000D+01  .000000000000D+00  .139698386192D-08  .650000000000D+02
     .432000000000D+05  .400000000000D+01
7  22 10 16 14  0  0.0  .298124738038D-03 -.386535248253D-11  .000000000000D+00
     .870000000000D+02  .103125000000D+02  .475555523082D-08 -.249786497355D+01
     .424683094025D-06  .164315802976D-01  .766478478909D-05  .515362672997D+04
     .504000000000D+05  .212341547012D-06  .312315228739D+01 -.152736902237D-06
     .950988976805D+00  .223937500000D+03 -.223978355646D+01 -.781103964687D-08
    -.985755346381D-10  .100000000000D+01  .223200000000D+04  .000000000000D+00
     .240000000000D+01  .000000000000D+00 -.111758708954D-07  .870000000000D+02
     .432000000000D+05  .400000000000D+01
